$$SOE
2461295.500000000, A.D. 2026-Sep-12 00:00:00.0000, 4.090758580709230E+08, 2.095484822484988E+08, -3.342065026452364E+07,
2461302.500000000, A.D. 2026-Sep-19 00:00:00.0000, 4.035314008799677E+08, 2.185628497950714E+08, -3.511453578888925E+07,
2461309.500000000, A.D. 2026-Sep-26 00:00:00.0000, 3.977860423219785E+08, 2.274683685661729E+08, -3.679093698848560E+07,
2461316.500000000, A.D. 2026-Oct-03 00:00:00.0000, 3.918419222537764E+08, 2.362601915337999E+08, -3.844895255512248E+07,
2461323.500000000, A.D. 2026-Oct-10 00:00:00.0000, 3.857013240622762E+08, 2.449335099795383E+08, -4.008768659286118E+07,
2461330.500000000, A.D. 2026-Oct-17 00:00:00.0000, 3.793666742476106E+08, 2.534835585992467E+08, -4.170624952872384E+07,
2461337.500000000, A.D. 2026-Oct-24 00:00:00.0000, 3.728405417756451E+08, 2.619056205377991E+08, -4.330375903903693E+07,
2461344.500000000, A.D. 2026-Oct-31 00:00:00.0000, 3.661256372938368E+08, 2.701950322742672E+08, -4.487934100353109E+07,
2461351.500000000, A.D. 2026-Nov-07 00:00:00.0000, 3.592248125446563E+08, 2.783471884187924E+08, -4.643213050958028E+07,
2461358.500000000, A.D. 2026-Nov-14 00:00:00.0000, 3.521410601728896E+08, 2.863575472957776E+08, -4.796127284963260E+07,
2461365.500000000, A.D. 2026-Nov-21 00:00:00.0000, 3.448775121100776E+08, 2.942216379833604E+08, -4.946592428674155E+07,
2461372.500000000, A.D. 2026-Nov-28 00:00:00.0000, 3.374374355363907E+08, 3.019350657929616E+08, -5.094525273973571E+07,
2461379.500000000, A.D. 2026-Dec-05 00:00:00.0000, 3.298242300438488E+08, 3.094935155236824E+08, -5.239843877205668E+07,
2461386.500000000, A.D. 2026-Dec-12 00:00:00.0000, 3.220414261693541E+08, 3.168927555892316E+08, -5.382467664326039E+07,
2461393.500000000, A.D. 2026-Dec-19 00:00:00.0000, 3.140926834123210E+08, 3.241286430101209E+08, -5.522317524713974E+07,
2461400.500000000, A.D. 2026-Dec-26 00:00:00.0000, 3.059817875973163E+08, 3.311971283898604E+08, -5.659315899191020E+07,
2461407.500000000, A.D. 2027-Jan-02 00:00:00.0000, 2.977126478607699E+08, 3.380942606709216E+08, -5.793386866091552E+07,
2461414.500000000, A.D. 2027-Jan-09 00:00:00.0000, 2.892892933820544E+08, 3.448161916773863E+08, -5.924456226045057E+07,
2461421.500000000, A.D. 2027-Jan-16 00:00:00.0000, 2.807158698978198E+08, 3.513591804401504E+08, -6.052451585476552E+07,
2461428.500000000, A.D. 2027-Jan-23 00:00:00.0000, 2.719966360495272E+08, 3.577195972525930E+08, -6.177302439332795E+07,
2461435.500000000, A.D. 2027-Jan-30 00:00:00.0000, 2.631359597566252E+08, 3.638939273971785E+08, -6.298940254925825E+07,
2461442.500000000, A.D. 2027-Feb-06 00:00:00.0000, 2.541383150461617E+08, 3.698787748719696E+08, -6.417298557821655E+07,
2461449.500000000, A.D. 2027-Feb-13 00:00:00.0000, 2.450082788857896E+08, 3.756708673248897E+08, -6.532313005402268E+07,
2461456.500000000, A.D. 2027-Feb-20 00:00:00.0000, 2.357505256623042E+08, 3.812670613919920E+08, -6.643921432630859E+07,
2461463.500000000, A.D. 2027-Feb-27 00:00:00.0000, 2.263698207084475E+08, 3.866643452176418E+08, -6.752063908884269E+07,
2461470.500000000, A.D. 2027-Mar-06 00:00:00.0000, 2.168710159076733E+08, 3.918598400722066E+08, -6.856682817747077E+07,
2461477.500000000, A.D. 2027-Mar-13 00:00:00.0000, 2.072590457880806E+08, 3.968508031068985E+08, -6.957722928200690E+07,
2461484.500000000, A.D. 2027-Mar-20 00:00:00.0000, 1.975389229866284E+08, 4.016346304022595E+08, -7.055131453496455E+07,
2461491.500000000, A.D. 2027-Mar-27 00:00:00.0000, 1.877157332971422E+08, 4.062088597542112E+08, -7.148858103910999E+07,
2461498.500000000, A.D. 2027-Apr-03 00:00:00.0000, 1.777946305173596E+08, 4.105711731436836E+08, -7.238855135515718E+07,
2461505.500000000, A.D. 2027-Apr-10 00:00:00.0000, 1.677808311690587E+08, 4.147193989073451E+08, -7.325077395225507E+07,
2461512.500000000, A.D. 2027-Apr-17 00:00:00.0000, 1.576796091264306E+08, 4.186515135903534E+08, -7.407482362347949E+07,
2461519.500000000, A.D. 2027-Apr-24 00:00:00.0000, 1.474962902451787E+08, 4.223656434150819E+08, -7.486030187781373E+07,
2461526.500000000, A.D. 2027-May-01 00:00:00.0000, 1.372362473053918E+08, 4.258600653909278E+08, -7.560683733317807E+07,
2461533.500000000, A.D. 2027-May-08 00:00:00.0000, 1.269048955895997E+08, 4.291332088122885E+08, -7.631408607731354E+07,
2461540.500000000, A.D. 2027-May-15 00:00:00.0000, 1.165076876140577E+08, 4.321836580965359E+08, -7.698173178112428E+07,
2461547.500000000, A.D. 2027-May-22 00:00:00.0000, 1.060501054624515E+08, 4.350101543674184E+08, -7.760948563168220E+07,
2461554.500000000, A.D. 2027-May-29 00:00:00.0000, 9.553765408946112E+07, 4.376115943171911E+08, -7.819708651236393E+07,
2461561.500000000, A.D. 2027-Jun-05 00:00:00.0000, 8.497585649364808E+07, 4.399870294833537E+08, -7.874430125645080E+07,
2461568.500000000, A.D. 2027-Jun-12 00:00:00.0000, 7.437024876671638E+07, 4.421356663736023E+08, -7.925092475513069E+07,
2461575.500000000, A.D. 2027-Jun-19 00:00:00.0000, 6.372637470121641E+07, 4.440568665064028E+08, -7.971677996607016E+07,
2461582.500000000, A.D. 2027-Jun-26 00:00:00.0000, 5.304978024916065E+07, 4.457501461096964E+08, -8.014171786997908E+07,
2461589.500000000, A.D. 2027-Jul-03 00:00:00.0000, 4.234600797684532E+07, 4.472151754903098E+08, -8.052561738709597E+07,
2461596.500000000, A.D. 2027-Jul-10 00:00:00.0000, 3.162059156550671E+07, 4.484517780869831E+08, -8.086838525652726E+07,
2461603.500000000, A.D. 2027-Jul-17 00:00:00.0000, 2.087905040590933E+07, 4.494599291723393E+08, -8.116995588494781E+07,
2461610.500000000, A.D. 2027-Jul-24 00:00:00.0000, 1.012688445347673E+07, 4.502397541459232E+08, -8.143029118414627E+07,
2461617.500000000, A.D. 2027-Jul-31 00:00:00.0000, -6.304302358662876E+05, 4.507915266607142E+08, -8.164938041647714E+07,
2461624.500000000, A.D. 2027-Aug-07 00:00:00.0000, -1.138744548129809E+07, 4.511156677444627E+08, -8.182723993739094E+07,
2461631.500000000, A.D. 2027-Aug-14 00:00:00.0000, -2.213874675511014E+07, 4.512127456725850E+08, -8.196391264684832E+07,
2461638.500000000, A.D. 2027-Aug-21 00:00:00.0000, -3.287896013558060E+07, 4.510834732359935E+08, -8.205946748235472E+07,
2461645.500000000, A.D. 2027-Aug-28 00:00:00.0000, -4.360275699688782E+07, 4.507287036171411E+08, -8.211399917182210E+07,
2461652.500000000, A.D. 2027-Sep-04 00:00:00.0000, -5.430485760885912E+07, 4.501494273884142E+08, -8.212762793625714E+07,
2461659.500000000, A.D. 2027-Sep-11 00:00:00.0000, -6.498003503362472E+07, 4.493467699807414E+08, -8.210049907015967E+07,
2461666.500000000, A.D. 2027-Sep-18 00:00:00.0000, -7.562311917976736E+07, 4.483219889810478E+08, -8.203278246647473E+07,
2461673.500000000, A.D. 2027-Sep-25 00:00:00.0000, -8.622900078003028E+07, 4.470764711906418E+08, -8.192467211519201E+07,
2461680.500000000, A.D. 2027-Oct-02 00:00:00.0000, -9.679263521312572E+07, 4.456117294823933E+08, -8.177638558215991E+07,
2461687.500000000, A.D. 2027-Oct-09 00:00:00.0000, -1.073090461433732E+08, 4.439293994627491E+08, -8.158816347253838E+07,
2461694.500000000, A.D. 2027-Oct-16 00:00:00.0000, -1.177733289118036E+08, 4.420312358943350E+08, -8.136026889116372E+07,
2461701.500000000, A.D. 2027-Oct-23 00:00:00.0000, -1.281806534163745E+08, 4.399191088840313E+08, -8.109298692608705E+07,
2461708.500000000, A.D. 2027-Oct-30 00:00:00.0000, -1.385262661050479E+08, 4.375950004575948E+08, -8.078662414181328E+07,
2461715.500000000, A.D. 2027-Nov-06 00:00:00.0000, -1.488054922442518E+08, 4.350610026605030E+08, -8.044150788572417E+07,
2461722.500000000, A.D. 2027-Nov-13 00:00:00.0000, -1.590137404463039E+08, 4.323193151196436E+08, -8.005798539733906E+07,
2461729.500000000, A.D. 2027-Nov-20 00:00:00.0000, -1.691465065530781E+08, 4.293722398877175E+08, -7.963642316600424E+07,
2461736.500000000, A.D. 2027-Nov-27 00:00:00.0000, -1.791993752608491E+08, 4.262221765442817E+08, -7.917720644479598E+07,
2461743.500000000, A.D. 2027-Dec-04 00:00:00.0000, -1.891680215115457E+08, 4.228716184789104E+08, -7.868073866291589E+07,
2461750.500000000, A.D. 2027-Dec-11 00:00:00.0000, -1.990482122018496E+08, 4.193231494021900E+08, -7.814744076660334E+07,
2461757.500000000, A.D. 2027-Dec-18 00:00:00.0000, -2.088358079370210E+08, 4.155794397541040E+08, -7.757775054288274E+07,
2461764.500000000, A.D. 2027-Dec-25 00:00:00.0000, -2.185267646800528E+08, 4.116432430162576E+08, -7.697212194170260E+07,
2461771.500000000, A.D. 2028-Jan-01 00:00:00.0000, -2.281171352576567E+08, 4.075173919509602E+08, -7.633102440048169E+07,
$$EOE